{
  "type": "FeatureCollection",
  "features": [
    {
      "type": "Feature",
      "properties": {
        "norad_id": 28051,
        "name": "IRS-P6 (RESOURCESAT-1)",
        "group": "resource",
        "lat": -57.14694249532096,
        "lon": -163.91620646006854,
        "alt_km": 757.6443492988728,
        "timestamp": "2025-12-14T16:47:40.339415+00:00",
        "meta_object_name": "IRS-P6 (RESOURCESAT-1)",
        "meta_object_id": "2003-046A",
        "meta_epoch": "2025-12-14T00:55:15.230208",
        "meta_mean_motion": 14.3607554,
        "meta_eccentricity": 0.0064216,
        "meta_inclination": 98.2182,
        "meta_ra_of_asc_node": 28.3851,
        "meta_arg_of_pericenter": 176.7648,
        "meta_mean_anomaly": 243.2126,
        "meta_ephemeris_type": 0,
        "meta_classification_type": "U",
        "meta_norad_cat_id": 28051,
        "meta_element_set_no": 999,
        "meta_rev_at_epoch": 15395,
        "meta_bstar": 9.4101209e-05,
        "meta_mean_motion_dot": 2.39e-06,
        "meta_mean_motion_ddot": 0,
        "tle_line1": "1 28051U 03046A   25348.03837072  .00000239  00000+0  94101-4 0  9993",
        "tle_line2": "2 28051  98.2182  28.3851 0064216 176.7648 243.2126 14.36075540153951"
      },
      "geometry": {
        "type": "Point",
        "coordinates": [
          -163.91620646006854,
          -57.14694249532096
        ]
      }
    },
    {
      "type": "Feature",
      "properties": {
        "norad_id": 28220,
        "name": "SHIYAN-1 (SY-1)",
        "group": "resource",
        "lat": 39.369783331529376,
        "lon": 43.816365743113046,
        "alt_km": 477.63285893239845,
        "timestamp": "2025-12-14T16:47:40.339426+00:00",
        "meta_object_name": "SHIYAN-1 (SY-1)",
        "meta_object_id": "2004-012A",
        "meta_epoch": "2025-12-13T17:02:55.745088",
        "meta_mean_motion": 15.28182686,
        "meta_eccentricity": 0.00055601,
        "meta_inclination": 97.8939,
        "meta_ra_of_asc_node": 49.3057,
        "meta_arg_of_pericenter": 322.0601,
        "meta_mean_anomaly": 38.0245,
        "meta_ephemeris_type": 0,
        "meta_classification_type": "U",
        "meta_norad_cat_id": 28220,
        "meta_element_set_no": 999,
        "meta_rev_at_epoch": 18271,
        "meta_bstar": 0.00054366645,
        "meta_mean_motion_dot": 0.00014873,
        "meta_mean_motion_ddot": 0,
        "tle_line1": "1 28220U 04012A   25347.71036742  .00014873  00000+0  54367-3 0  9992",
        "tle_line2": "2 28220  97.8939  49.3057 0005560 322.0601  38.0245 15.28182686182717"
      },
      "geometry": {
        "type": "Point",
        "coordinates": [
          43.816365743113046,
          39.369783331529376
        ]
      }
    },
    {
      "type": "Feature",
      "properties": {
        "norad_id": 28376,
        "name": "AURA",
        "group": "resource",
        "lat": -40.09495920204489,
        "lon": -53.98880231818474,
        "alt_km": 697.2080954920812,
        "timestamp": "2025-12-14T16:47:40.339438+00:00",
        "meta_object_name": "AURA",
        "meta_object_id": "2004-026A",
        "meta_epoch": "2025-12-13T22:53:56.291136",
        "meta_mean_motion": 14.60950384,
        "meta_eccentricity": 0.00012567,
        "meta_inclination": 98.3185,
        "meta_ra_of_asc_node": 298.1863,
        "meta_arg_of_pericenter": 93.9916,
        "meta_mean_anomaly": 266.1428,
        "meta_ephemeris_type": 0,
        "meta_classification_type": "U",
        "meta_norad_cat_id": 28376,
        "meta_element_set_no": 999,
        "meta_rev_at_epoch": 13916,
        "meta_bstar": 0.00032771556,
        "meta_mean_motion_dot": 1.558e-05,
        "meta_mean_motion_ddot": 0,
        "tle_line1": "1 28376U 04026A   25347.95412374  .00001558  00000+0  32772-3 0  9996",
        "tle_line2": "2 28376  98.3185 298.1863 0001256  93.9916 266.1428 14.60950384139169"
      },
      "geometry": {
        "type": "Point",
        "coordinates": [
          -53.98880231818474,
          -40.09495920204489
        ]
      }
    },
    {
      "type": "Feature",
      "properties": {
        "norad_id": 28649,
        "name": "IRS-P5 (CARTOSAT-1)",
        "group": "resource",
        "lat": 19.624090323154594,
        "lon": 12.31574960167386,
        "alt_km": 596.0892342378293,
        "timestamp": "2025-12-14T16:47:40.339449+00:00",
        "meta_object_name": "IRS-P5 (CARTOSAT-1)",
        "meta_object_id": "2005-017A",
        "meta_epoch": "2025-12-13T22:58:54.352128",
        "meta_mean_motion": 14.90410616,
        "meta_eccentricity": 0.00011671,
        "meta_inclination": 97.5499,
        "meta_ra_of_asc_node": 14.3169,
        "meta_arg_of_pericenter": 48.5975,
        "meta_mean_anomaly": 311.5344,
        "meta_ephemeris_type": 0,
        "meta_classification_type": "U",
        "meta_norad_cat_id": 28649,
        "meta_element_set_no": 999,
        "meta_rev_at_epoch": 11622,
        "meta_bstar": 0.00027083427,
        "meta_mean_motion_dot": 2.586e-05,
        "meta_mean_motion_ddot": 0,
        "tle_line1": "1 28649U 05017A   25347.95757352  .00002586  00000+0  27083-3 0  9999",
        "tle_line2": "2 28649  97.5499  14.3169 0001167  48.5975 311.5344 14.90410616116226"
      },
      "geometry": {
        "type": "Point",
        "coordinates": [
          12.31574960167386,
          19.624090323154594
        ]
      }
    },
    {
      "type": "Feature",
      "properties": {
        "norad_id": 28893,
        "name": "SINAH 1",
        "group": "resource",
        "lat": -7.284834818967853,
        "lon": -63.80211163835771,
        "alt_km": 678.2195505191848,
        "timestamp": "2025-12-14T16:47:40.339460+00:00",
        "meta_object_name": "SINAH 1",
        "meta_object_id": "2005-043D",
        "meta_epoch": "2025-12-13T23:32:22.488576",
        "meta_mean_motion": 14.63964263,
        "meta_eccentricity": 0.00154019,
        "meta_inclination": 98.2603,
        "meta_ra_of_asc_node": 116.5413,
        "meta_arg_of_pericenter": 133.3353,
        "meta_mean_anomaly": 226.9136,
        "meta_ephemeris_type": 0,
        "meta_classification_type": "U",
        "meta_norad_cat_id": 28893,
        "meta_element_set_no": 999,
        "meta_rev_at_epoch": 7342,
        "meta_bstar": 0.00013752156,
        "meta_mean_motion_dot": 6.72e-06,
        "meta_mean_motion_ddot": 0,
        "tle_line1": "1 28893U 05043D   25347.98081584  .00000672  00000+0  13752-3 0  9991",
        "tle_line2": "2 28893  98.2603 116.5413 0015401 133.3353 226.9136 14.63964263 73422"
      },
      "geometry": {
        "type": "Point",
        "coordinates": [
          -63.80211163835771,
          -7.284834818967853
        ]
      }
    },
    {
      "type": "Feature",
      "properties": {
        "norad_id": 29079,
        "name": "EROS B",
        "group": "resource",
        "lat": -33.46219673703115,
        "lon": -79.52472599557515,
        "alt_km": 368.13862791681186,
        "timestamp": "2025-12-14T16:47:40.339470+00:00",
        "meta_object_name": "EROS B",
        "meta_object_id": "2006-014A",
        "meta_epoch": "2025-12-13T23:02:51.169344",
        "meta_mean_motion": 15.68742689,
        "meta_eccentricity": 0.00025509,
        "meta_inclination": 97.3464,
        "meta_ra_of_asc_node": 104.5919,
        "meta_arg_of_pericenter": 307.9018,
        "meta_mean_anomaly": 52.2013,
        "meta_ephemeris_type": 0,
        "meta_classification_type": "U",
        "meta_norad_cat_id": 29079,
        "meta_element_set_no": 999,
        "meta_rev_at_epoch": 9099,
        "meta_bstar": 0.0013791766,
        "meta_mean_motion_dot": 0.00159813,
        "meta_mean_motion_ddot": 0,
        "tle_line1": "1 29079U 06014A   25347.96031446  .00159813  00000+0  13792-2 0  9992",
        "tle_line2": "2 29079  97.3464 104.5919 0002550 307.9018  52.2013 15.68742689 90997"
      },
      "geometry": {
        "type": "Point",
        "coordinates": [
          -79.52472599557515,
          -33.46219673703115
        ]
      }
    },
    {
      "type": "Feature",
      "properties": {
        "norad_id": 29228,
        "name": "RESURS-DK 1",
        "group": "resource",
        "lat": 69.59026267299188,
        "lon": -162.46266324283238,
        "alt_km": 526.9103277803733,
        "timestamp": "2025-12-14T16:47:40.339481+00:00",
        "meta_object_name": "RESURS-DK 1",
        "meta_object_id": "2006-021A",
        "meta_epoch": "2025-12-13T18:09:18.822240",
        "meta_mean_motion": 15.1216881,
        "meta_eccentricity": 0.00071323,
        "meta_inclination": 69.9332,
        "meta_ra_of_asc_node": 99.2108,
        "meta_arg_of_pericenter": 258.4187,
        "meta_mean_anomaly": 101.6178,
        "meta_ephemeris_type": 0,
        "meta_classification_type": "U",
        "meta_norad_cat_id": 29228,
        "meta_element_set_no": 999,
        "meta_rev_at_epoch": 7453,
        "meta_bstar": 0.00021607827,
        "meta_mean_motion_dot": 3.632e-05,
        "meta_mean_motion_ddot": 0,
        "tle_line1": "1 29228U 06021A   25347.75646785  .00003632  00000+0  21608-3 0  9994",
        "tle_line2": "2 29228  69.9332  99.2108 0007132 258.4187 101.6178 15.12168810 74530"
      },
      "geometry": {
        "type": "Point",
        "coordinates": [
          -162.46266324283238,
          69.59026267299188
        ]
      }
    }
  ]
}